SL-16 R/B               
1 22803U 93059B   26105.24965148 -.00000039  00000+0  43432-5 0  9997
2 22803  70.9894 294.0291 0016346 161.7478 198.4236 14.17239337684714
ARIANE 40 R/B           
1 22830U 93061H   26105.14987627  .00000115  00000+0  57948-4 0  9995
2 22830  98.4855 173.3062 0011028 170.2248 189.9153 14.32880345699327
COSMOS 2278             
1 23087U 94023A   26105.23257713  .00000332  00000+0  19829-3 0  9991
2 23087  71.0509  98.6419 0009792 321.6084  38.4341 14.14379876649970
SL-16 R/B               
1 23088U 94023B   26105.12114235 -.00000237  00000+0 -97509-4 0  9999
2 23088  71.0023 354.3795 0005593 254.1825 105.8681 14.15018933651243
SL-16 R/B               
1 23343U 94074B   26105.03989602  .00000237  00000+0  38380-4 0  9997
2 23343  97.7054 134.3765 0008094 101.0876 288.7711 14.79448595692627
SL-16 R/B               
1 23405U 94077B   26105.15923375  .00000143  00000+0  97348-4 0  9992
2 23405  70.9811 275.7620 0001072 160.4174 199.6990 14.15567069621392
ARIANE 40+ R/B          
1 23561U 95021B   26105.15654245  .00000146  00000+0  60560-4 0  9991
2 23561  98.4441 176.1340 0007373  42.0497 347.2965 14.39798292624492
SL-16 R/B               
1 23705U 95058B   26105.23867253  .00000282  00000+0  16858-3 0  9996
2 23705  71.0192 103.5209 0010610  58.6736 301.5424 14.15502819573024
SL-16 R/B               
1 24298U 96051B   26105.28468294  .00000047  00000+0  52149-4 0  9998
2 24298  70.7583  97.7807 0012649  85.8970 274.3595 14.12425322526817
ORBVIEW 2 (SEASTAR)     
1 24883U 97037A   26105.28993342  .00000140  00000+0  64920-4 0  9994
2 24883  98.8628 270.5836 0001476 339.2857  20.8267 14.35520259513723
SL-16 R/B               
1 25400U 98043G   26105.28659079  .00000012  00000+0  23910-4 0  9996
2 25400  98.8314  58.9236 0008727 268.6243  91.3937 14.26058154444206
SL-16 R/B               
1 25407U 98045B   26105.23163545  .00000075  00000+0  62118-4 0  9990
2 25407  71.0091 104.7270 0008898 316.4298  43.6122 14.16198774432279
ISS (ZARYA)             
1 25544U 98067A   26105.23148970  .00005508  00000+0  10834-3 0  9994
2 25544  51.6321 251.6702 0006571 314.4960  45.5491 15.48920688561998
CZ-4B R/B               
1 25732U 99025C   26105.14512106  .00000016  00000+0  28357-4 0  9993
2 25732  98.6556 148.5505 0036157 239.0712 213.9049 14.18272500393333
OKEAN-O                 
1 25860U 99039A   26105.15166637  .00000324  00000+0  49220-4 0  9999
2 25860  97.9371 164.6588 0001196 115.1282 245.0055 14.80392097439789
SL-16 R/B               
1 25861U 99039B   26105.16485609  .00000241  00000+0  37258-4 0  9990
2 25861  97.9894 164.1928 0015800 135.5558 224.6925 14.81780671442268
DELTA 2 R/B             
1 25876U 99041E   26105.11052348  .00000347  00000+0  96170-4 0  9999
2 25876  51.7596 155.7833 0502540  95.8297 270.0128 14.11916787368171
