[{"OBJECT_NAME":"SL-16 R/B","OBJECT_ID":"1993-059B","EPOCH":"2026-04-15T05:59:29.887872","MEAN_MOTION":14.17239337,"ECCENTRICITY":0.00163467,"INCLINATION":70.9894,"RA_OF_ASC_NODE":294.0291,"ARG_OF_PERICENTER":161.7478,"MEAN_ANOMALY":198.4236,"EPHEMERIS_TYPE":0,"CLASSIFICATION_TYPE":"U","NORAD_CAT_ID":22803,"ELEMENT_SET_NO":999,"REV_AT_EPOCH":68471,"BSTAR":4.34321e-6,"MEAN_MOTION_DOT":-3.9e-7,"MEAN_MOTION_DDOT":0},{"OBJECT_NAME":"ARIANE 40 R/B","OBJECT_ID":"1993-061H","EPOCH":"2026-04-15T03:35:49.309728","MEAN_MOTION":14.32880345,"ECCENTRICITY":0.00110284,"INCLINATION":98.4855,"RA_OF_ASC_NODE":173.3062,"ARG_OF_PERICENTER":170.2248,"MEAN_ANOMALY":189.9153,"EPHEMERIS_TYPE":0,"CLASSIFICATION_TYPE":"U","NORAD_CAT_ID":22830,"ELEMENT_SET_NO":999,"REV_AT_EPOCH":69932,"BSTAR":5.7948355e-5,"MEAN_MOTION_DOT":1.15e-6,"MEAN_MOTION_DDOT":0},{"OBJECT_NAME":"COSMOS 2278","OBJECT_ID":"1994-023A","EPOCH":"2026-04-15T05:34:54.664032","MEAN_MOTION":14.14379876,"ECCENTRICITY":0.00097921,"INCLINATION":71.0509,"RA_OF_ASC_NODE":98.6419,"ARG_OF_PERICENTER":321.6084,"MEAN_ANOMALY":38.4341,"EPHEMERIS_TYPE":0,"CLASSIFICATION_TYPE":"U","NORAD_CAT_ID":23087,"ELEMENT_SET_NO":999,"REV_AT_EPOCH":64997,"BSTAR":0.00019828754,"MEAN_MOTION_DOT":3.32e-6,"MEAN_MOTION_DDOT":0},{"OBJECT_NAME":"SL-16 R/B","OBJECT_ID":"1994-023B","EPOCH":"2026-04-15T02:54:26.699040","MEAN_MOTION":14.15018933,"ECCENTRICITY":0.00055935,"INCLINATION":71.0023,"RA_OF_ASC_NODE":354.3795,"ARG_OF_PERICENTER":254.1825,"MEAN_ANOMALY":105.8681,"EPHEMERIS_TYPE":0,"CLASSIFICATION_TYPE":"U","NORAD_CAT_ID":23088,"ELEMENT_SET_NO":999,"REV_AT_EPOCH":65124,"BSTAR":-9.7509478e-5,"MEAN_MOTION_DOT":-2.37e-6,"MEAN_MOTION_DDOT":0},{"OBJECT_NAME":"SL-16 R/B","OBJECT_ID":"1994-074B","EPOCH":"2026-04-15T00:57:27.016128","MEAN_MOTION":14.79448595,"ECCENTRICITY":0.00080946,"INCLINATION":97.7054,"RA_OF_ASC_NODE":134.3765,"ARG_OF_PERICENTER":101.0876,"MEAN_ANOMALY":288.7711,"EPHEMERIS_TYPE":0,"CLASSIFICATION_TYPE":"U","NORAD_CAT_ID":23343,"ELEMENT_SET_NO":999,"REV_AT_EPOCH":69262,"BSTAR":3.8379678e-5,"MEAN_MOTION_DOT":2.37e-6,"MEAN_MOTION_DDOT":0},{"OBJECT_NAME":"SL-16 R/B","OBJECT_ID":"1994-077B","EPOCH":"2026-04-15T03:49:17.796000","MEAN_MOTION":14.15567069,"ECCENTRICITY":0.00010728,"INCLINATION":70.9811,"RA_OF_ASC_NODE":275.762,"ARG_OF_PERICENTER":160.4174,"MEAN_ANOMALY":199.699,"EPHEMERIS_TYPE":0,"CLASSIFICATION_TYPE":"U","NORAD_CAT_ID":23405,"ELEMENT_SET_NO":999,"REV_AT_EPOCH":62139,"BSTAR":9.7347541e-5,"MEAN_MOTION_DOT":1.43e-6,"MEAN_MOTION_DDOT":0},{"OBJECT_NAME":"ARIANE 40+ R/B","OBJECT_ID":"1995-021B","EPOCH":"2026-04-15T03:45:25.267680","MEAN_MOTION":14.39798292,"ECCENTRICITY":0.00073734,"INCLINATION":98.4441,"RA_OF_ASC_NODE":176.134,"ARG_OF_PERICENTER":42.0497,"MEAN_ANOMALY":347.2965,"EPHEMERIS_TYPE":0,"CLASSIFICATION_TYPE":"U","NORAD_CAT_ID":23561,"ELEMENT_SET_NO":999,"REV_AT_EPOCH":62449,"BSTAR":6.0560297e-5,"MEAN_MOTION_DOT":1.46e-6,"MEAN_MOTION_DDOT":0},{"OBJECT_NAME":"SL-16 R/B","OBJECT_ID":"1995-058B","EPOCH":"2026-04-15T05:43:41.306592","MEAN_MOTION":14.15502819,"ECCENTRICITY":0.00106103,"INCLINATION":71.0192,"RA_OF_ASC_NODE":103.5209,"ARG_OF_PERICENTER":58.6736,"MEAN_ANOMALY":301.5424,"EPHEMERIS_TYPE":0,"CLASSIFICATION_TYPE":"U","NORAD_CAT_ID":23705,"ELEMENT_SET_NO":999,"REV_AT_EPOCH":57302,"BSTAR":0.00016858408,"MEAN_MOTION_DOT":2.82e-6,"MEAN_MOTION_DDOT":0},{"OBJECT_NAME":"SL-16 R/B","OBJECT_ID":"1996-051B","EPOCH":"2026-04-15T06:49:56.606016","MEAN_MOTION":14.12425322,"ECCENTRICITY":0.00126497,"INCLINATION":70.7583,"RA_OF_ASC_NODE":97.7807,"ARG_OF_PERICENTER":85.897,"MEAN_ANOMALY":274.3595,"EPHEMERIS_TYPE":0,"CLASSIFICATION_TYPE":"U","NORAD_CAT_ID":24298,"ELEMENT_SET_NO":999,"REV_AT_EPOCH":52681,"BSTAR":5.2149029e-5,"MEAN_MOTION_DOT":4.7e-7,"MEAN_MOTION_DDOT":0},{"OBJECT_NAME":"ORBVIEW 2 (SEASTAR)","OBJECT_ID":"1997-037A","EPOCH":"2026-04-15T06:57:30.247488","MEAN_MOTION":14.35520259,"ECCENTRICITY":0.00014767,"INCLINATION":98.8628,"RA_OF_ASC_NODE":270.5836,"ARG_OF_PERICENTER":339.2857,"MEAN_ANOMALY":20.8267,"EPHEMERIS_TYPE":0,"CLASSIFICATION_TYPE":"U","NORAD_CAT_ID":24883,"ELEMENT_SET_NO":999,"REV_AT_EPOCH":51372,"BSTAR":6.492015e-5,"MEAN_MOTION_DOT":1.4e-6,"MEAN_MOTION_DDOT":0},{"OBJECT_NAME":"SL-16 R/B","OBJECT_ID":"1998-043G","EPOCH":"2026-04-15T06:52:41.444256","MEAN_MOTION":14.26058154,"ECCENTRICITY":0.00087278,"INCLINATION":98.8314,"RA_OF_ASC_NODE":58.9236,"ARG_OF_PERICENTER":268.6243,"MEAN_ANOMALY":91.3937,"EPHEMERIS_TYPE":0,"CLASSIFICATION_TYPE":"U","NORAD_CAT_ID":25400,"ELEMENT_SET_NO":999,"REV_AT_EPOCH":44420,"BSTAR":2.3910177e-5,"MEAN_MOTION_DOT":1.2e-7,"MEAN_MOTION_DDOT":0},{"OBJECT_NAME":"SL-16 R/B","OBJECT_ID":"1998-045B","EPOCH":"2026-04-15T05:33:33.302880","MEAN_MOTION":14.16198774,"ECCENTRICITY":0.00088982,"INCLINATION":71.0091,"RA_OF_ASC_NODE":104.727,"ARG_OF_PERICENTER":316.4298,"MEAN_ANOMALY":43.6122,"EPHEMERIS_TYPE":0,"CLASSIFICATION_TYPE":"U","NORAD_CAT_ID":25407,"ELEMENT_SET_NO":999,"REV_AT_EPOCH":43227,"BSTAR":6.2118364e-5,"MEAN_MOTION_DOT":7.5e-7,"MEAN_MOTION_DDOT":0},{"OBJECT_NAME":"ISS (ZARYA)","OBJECT_ID":"1998-067A","EPOCH":"2026-04-15T05:33:20.710080","MEAN_MOTION":15.48920688,"ECCENTRICITY":0.0006571,"INCLINATION":51.6321,"RA_OF_ASC_NODE":251.6702,"ARG_OF_PERICENTER":314.496,"MEAN_ANOMALY":45.5491,"EPHEMERIS_TYPE":0,"CLASSIFICATION_TYPE":"U","NORAD_CAT_ID":25544,"ELEMENT_SET_NO":999,"REV_AT_EPOCH":56199,"BSTAR":0.0001083435,"MEAN_MOTION_DOT":5.508e-5,"MEAN_MOTION_DDOT":0},{"OBJECT_NAME":"CZ-4B R/B","OBJECT_ID":"1999-025C","EPOCH":"2026-04-15T03:28:58.459584","MEAN_MOTION":14.182725,"ECCENTRICITY":0.00361573,"INCLINATION":98.6556,"RA_OF_ASC_NODE":148.5505,"ARG_OF_PERICENTER":239.0712,"MEAN_ANOMALY":213.9049,"EPHEMERIS_TYPE":0,"CLASSIFICATION_TYPE":"U","NORAD_CAT_ID":25732,"ELEMENT_SET_NO":999,"REV_AT_EPOCH":39333,"BSTAR":2.8356991e-5,"MEAN_MOTION_DOT":1.6e-7,"MEAN_MOTION_DDOT":0},{"OBJECT_NAME":"OKEAN-O","OBJECT_ID":"1999-039A","EPOCH":"2026-04-15T03:38:23.974368","MEAN_MOTION":14.80392097,"ECCENTRICITY":0.00011963,"INCLINATION":97.9371,"RA_OF_ASC_NODE":164.6588,"ARG_OF_PERICENTER":115.1282,"MEAN_ANOMALY":245.0055,"EPHEMERIS_TYPE":0,"CLASSIFICATION_TYPE":"U","NORAD_CAT_ID":25860,"ELEMENT_SET_NO":999,"REV_AT_EPOCH":43978,"BSTAR":4.9219798e-5,"MEAN_MOTION_DOT":3.24e-6,"MEAN_MOTION_DDOT":0},{"OBJECT_NAME":"SL-16 R/B","OBJECT_ID":"1999-039B","EPOCH":"2026-04-15T03:57:23.566176","MEAN_MOTION":14.81780671,"ECCENTRICITY":0.00158005,"INCLINATION":97.9894,"RA_OF_ASC_NODE":164.1928,"ARG_OF_PERICENTER":135.5558,"MEAN_ANOMALY":224.6925,"EPHEMERIS_TYPE":0,"CLASSIFICATION_TYPE":"U","NORAD_CAT_ID":25861,"ELEMENT_SET_NO":999,"REV_AT_EPOCH":44226,"BSTAR":3.7257672e-5,"MEAN_MOTION_DOT":2.41e-6,"MEAN_MOTION_DDOT":0},{"OBJECT_NAME":"DELTA 2 R/B","OBJECT_ID":"1999-041E","EPOCH":"2026-04-15T02:39:09.228672","MEAN_MOTION":14.11916787,"ECCENTRICITY":0.05025409,"INCLINATION":51.7596,"RA_OF_ASC_NODE":155.7833,"ARG_OF_PERICENTER":95.8297,"MEAN_ANOMALY":270.0128,"EPHEMERIS_TYPE":0,"CLASSIFICATION_TYPE":"U","NORAD_CAT_ID":25876,"ELEMENT_SET_NO":999,"REV_AT_EPOCH":36817,"BSTAR":9.61703e-5,"MEAN_MOTION_DOT":3.47e-6,"MEAN_MOTION_DDOT":0}]
